OBJECT_NAME,OBJECT_ID,EPOCH,MEAN_MOTION,ECCENTRICITY,INCLINATION,RA_OF_ASC_NODE,ARG_OF_PERICENTER,MEAN_ANOMALY,EPHEMERIS_TYPE,CLASSIFICATION_TYPE,NORAD_CAT_ID,ELEMENT_SET_NO,REV_AT_EPOCH,BSTAR,MEAN_MOTION_DOT,MEAN_MOTION_DDOT
POLYITAN-1,2014-033AJ,2026-07-12T13:29:41.291808,15.34156417,.0008123,98.0940,222.2395,71.5850,288.6273,0,U,40042,999,65748,.38349E-3,.12606E-3,0
TIGRISAT,2014-033AK,2026-07-11T08:52:24.274560,14.85242878,.00489566,97.7858,341.8319,356.9649,3.1262,0,U,40043,999,64921,.10764196E-3,.887E-5,0
AEROCUBE 6A,2014-033AM,2026-07-12T01:39:06.568128,14.98323759,.00366184,97.7234,359.7579,291.7441,67.9886,0,U,40045,999,65034,.26138002E-3,.3093E-4,0
AEROCUBE 6B,2014-033AN,2026-07-12T10:44:01.525632,14.99783157,.00380306,97.7198,359.9758,279.7986,79.8944,0,U,40046,999,65054,.20913206E-3,.2562E-4,0
CANX-4,2014-034C,2026-07-12T13:12:43.994016,14.81308374,.0011482,98.3088,69.7910,292.3453,67.6541,0,U,40055,999,64828,.6273E-4,.432E-5,0
CANX-5,2014-034D,2026-07-12T03:26:26.256480,14.81325415,.00114935,98.3091,69.4141,293.9901,66.0106,0,U,40056,999,63903,.66165812E-4,.459E-5,0
UKUBE-1,2014-037F,2026-07-12T19:34:53.524992,15.13929768,.0003316,98.4241,199.7883,92.8928,267.2681,0,U,40074,999,65243,.28821E-3,.5144E-4,0
BRITE-PL2 (HEWELIUSZ),2014-049B,2026-07-12T17:54:23.803776,14.94683534,.0014565,97.9118,305.9469,30.2363,329.9695,0,U,40119,999,64526,.84332E-4,.856E-5,0
AEROCUBE 5C,2015-058B,2026-07-11T23:30:30.300768,14.91564017,.01321165,64.7651,185.4549,53.6557,307.6664,0,U,40965,999,36935,.17688434E-3,.1921E-4,0
AEROCUBE 7,2015-058C,2026-07-11T08:52:31.063008,14.95890731,.01217529,64.7604,169.0605,52.2144,308.9921,0,U,40966,999,36957,.25063791E-3,.3081E-4,0
FOX-1A (AO-85),2015-058D,2026-07-12T10:30:06.709824,14.91077888,.01321369,64.7723,200.5056,46.8579,314.3491,0,U,40967,999,11733,.15568718E-3,.1646E-4,0
SINOD-D 1,2015-058E,2026-07-12T09:56:45.843936,14.96071501,.01208123,64.7730,179.9000,43.2193,317.8323,0,U,40968,999,12043,.23567524E-3,.2893E-4,0
SNAP-3 ALICE,2015-058G,2026-07-12T18:15:34.864416,15.66741982,.0024202,64.7494,15.0925,350.0979,9.9690,0,U,40970,999,12088,.1102E-2,.120047E-2,0
LMRST-SAT,2015-058H,2026-07-12T11:11:41.677440,14.90693593,.01337169,64.7736,196.8023,48.8331,312.4224,0,U,40971,999,11732,.1507728E-3,.1577E-4,0
SNAP-3 EDDIE,2015-058J,2026-07-12T19:03:46.199808,15.68100324,.0025276,64.7398,5.5057,352.7681,7.3100,0,U,40972,999,12303,.11416E-2,.13184E-2,0
PROPCUBE 3,2015-058K,2026-07-12T08:56:48.703488,14.94401916,.01255398,64.7666,173.8370,50.0770,311.1295,0,U,40973,999,11856,.20834553E-3,.2447E-4,0
BISONSAT,2015-058L,2026-07-12T19:36:54.796032,15.16892224,.0081923,64.7590,90.7338,36.8320,323.8392,0,U,40974,999,11950,.48919E-3,.10357E-3,0
SNAP-3 JIMI,2015-058M,2026-07-12T19:34:55.195104,15.02588897,.0107671,64.7640,138.6666,45.2481,315.7335,0,U,40975,999,11807,.33488E-3,.4884E-4,0
PROPCUBE 1 (FLORA),2015-058N,2026-07-12T12:16:55.526592,14.89319519,.01322776,64.7718,216.7418,51.1169,310.1653,0,U,40976,999,12003,.12066864E-3,.1172E-4,0
SINOD-D 3,2015-058P,2026-07-12T09:48:13.741632,14.94159880,.0120841,64.7701,197.0510,48.2227,312.9136,0,U,40977,999,11852,.19754107E-3,.2267E-4,0
RAVAN,2016-067B,2026-07-11T23:55:25.165920,15.57218470,.00018526,97.9848,85.4791,239.2173,120.8898,0,U,41849,999,53155,.51238912E-3,.37282E-3,0
CELTEE 1,2016-067C,2026-07-12T13:19:31.446048,15.19924917,.0002226,98.0643,61.8528,113.6381,246.5086,0,U,41850,999,52973,.13307E-3,.2781E-4,0
OPTICUBE 04,2016-067D,2026-07-12T12:43:38.944704,15.09765361,.00163612,98.0676,47.1347,36.5014,323.7325,0,U,41851,999,52899,.87500462E-4,.1344E-4,0
AEROCUBE 8D,2016-067E,2026-07-12T13:20:16.721376,15.24746299,.0004716,98.0652,65.6587,63.3343,296.8375,0,U,41852,999,52993,.17253E-3,.4191E-4,0
AEROCUBE 8C,2016-067F,2026-07-12T13:50:13.043904,15.25001010,.0004548,98.0525,62.8765,351.7275,8.3885,0,U,41853,999,52993,.1879E-3,.4607E-4,0
CORVUS BC2,2017-042X,2026-07-12T10:29:08.942784,15.06449617,.00137355,97.4089,353.8106,32.7025,327.5051,0,U,42846,999,49086,.10977565E-3,.1563E-4,0
CORVUS BC1,2017-042Y,2026-07-12T10:17:22.464672,15.06612257,.0011892,97.4116,354.6330,10.4044,349.7427,0,U,42847,999,49089,.81622653E-4,.1151E-4,0
MAKERSAT 0,2017-073D,2026-07-12T15:28:40.020096,15.32942964,.0105315,97.4593,76.3727,181.3380,178.7596,0,U,43016,999,47036,.32812E-3,.12386E-3,0
SIRION PATHFINDER-2,2018-099B,2026-07-12T16:22:26.692032,15.14765872,.0008221,97.4243,242.1349,200.6549,159.4352,0,U,43759,999,41648,.16138E-3,.293E-4,0
CORVUS BC4,2018-099K,2026-07-12T15:46:41.255616,15.12690534,.0006504,97.4057,235.8928,271.7696,88.2791,0,U,43767,999,41625,.15434E-3,.2638E-4,0
